#aV2006  7  2  0  0   .00000000      96 DD+AD WGS84 FIT  NGA
## 1382       .00000000   900.00000000 53918  .0000000000000
+   29     1  2  3  4  5  6  7  8  9 10 11 13 14 15 16 17 18
+         19 20 21 22 23 24 25 26 27 28 29 30  0  0  0  0  0
+          0  0  0  0  0  0  0  0  0  0  0  0  0  0  0  0  0
+          0  0  0  0  0  0  0  0  0  0  0  0  0  0  0  0  0
+          0  0  0  0  0  0  0  0  0  0  0  0  0  0  0  0  0
++         0  0  0  0  0  0  0  0  0  0  0  0  0  0  0  0  0
++         0  0  0  0  0  0  0  0  0  0  0  0  0  0  0  0  0
++         0  0  0  0  0  0  0  0  0  0  0  0  0  0  0  0  0
++         0  0  0  0  0  0  0  0  0  0  0  0  0  0  0  0  0
++         0  0  0  0  0  0  0  0  0  0  0  0  0  0  0  0  0
%c cc cc ccc ccc cccc cccc cccc cccc ccccc ccccc ccccc ccccc
%c cc cc ccc ccc cccc cccc cccc cccc ccccc ccccc ccccc ccccc
%f  0.0000000  0.000000000  0.00000000000  0.000000000000000
%f  0.0000000  0.000000000  0.00000000000  0.000000000000000
%i    0    0    0    0      0      0      0      0         0
%i    0    0    0    0      0      0      0      0         0
/*      NGA, ST. LOUIS,MO.                                  
/*   EPHEMERIS COMPUTED FROM  3 DAYS OF DATA                
/* CCCCCCCCCCCCCCCCCCCCCCCCCCCCCCCCCCCCCCCCCCCCCCCCCCCCCCCCC
/* CCCCCCCCCCCCCCCCCCCCCCCCCCCCCCCCCCCCCCCCCCCCCCCCCCCCCCCCC
*  2006  7  2  3 45   .00000000                                                 
P  1  20604.676831  14538.417682  -8231.295938     63.172521                    
V  1   5853.994871   9112.102282  29991.017034       .020915                    
P  2 -14446.457991  -6052.694928 -21714.082919      9.904625                    
V  2   7196.930542 -26026.706135   2280.656394       .034403                    
P  3  22802.469636   8569.294235  10782.018427     96.295613                    
V  3   8594.892977  11380.951229 -26494.191700       .886942                    
P  4  -8377.640938 -17442.505492 -18075.423263    265.988917                    
V  4   8315.679670 -21576.655994  17346.415486       .079559                    
P  5 -21668.926251  13391.818299  -7404.275721    184.337086                    
V  5  -9824.400445   -163.732838  29424.937760       .373390                    
P  6  -1225.089273  18252.551944 -19036.717230    579.845371                    
V  6 -19123.370782 -15740.241757 -13789.515471       .088289                    
P  7  17854.596224  19247.750575  -3236.482254    541.544773                    
V  7  -5880.251303   -264.272076 -30883.503502      -.002994                    
P  8  -1498.563018 -23123.310313  12454.254085    -71.045531                    
V  8   7124.650941 -14706.728475 -26546.122047      -.013642                    
P  9 -14483.952264  15631.363979  15116.453325     26.433268                    
V  9   2338.871833 -20312.052273  22697.767430       .014398                    
P 10 -25301.919321    -23.106014  -8675.333851     85.931264                    
V 10  10026.362670  -4407.393362 -29264.135862       .006056                    
P 11  13508.477297 -17750.189412  14167.550065    336.851999                    
V 11   1483.396330  18715.198312  22181.667063       .022289                    
P 13    753.126001 -17967.828518 -19659.246384     73.893615                    
V 13  17465.651330  17431.870569 -15283.575483       .030363                    
P 14  14730.677783  21253.021926   6261.610166    -10.761902                    
V 14  -6782.664857  -4341.520994  30955.361136       .008396                    
P 15   1424.143311  22927.073033  12813.199363    638.023390                    
V 15  -8157.690996  14803.080718 -25696.759639       .062274                    
P 16  22988.568812   3450.848720 -12867.022972     53.610443                    
V 16 -15401.133888   6128.026716 -25587.216759       .027704                    
P 17 -14173.197823 -21393.538995   7041.788616     99.911377                    
V 17   8135.176664   4511.881600  29963.604117       .005023                    
P 18  -5941.232081  15971.401663  20397.372908   -241.489949                    
V 18 -25422.401971   4325.128718 -11156.549698      -.014307                    
P 19  18084.526285   -255.466830  19578.438238     -2.004408                    
V 19  15292.362872  19330.096056 -13897.369794       .023393                    
P 20  20080.130614 -13509.002427 -11007.928505    -24.696387                    
V 20  14030.376327  -1204.135266  27328.979133       .004607                    
P 21  -4260.885519  25463.316084   4923.761774     39.114740                    
V 21  -5454.531394   4869.676234 -30860.271707       .023573                    
P 22   9130.448724  13407.854432  21186.746982    112.241683                    
V 22 -25872.417044   6066.894111   7346.390589       .038019                    
P 23  11549.864929  -9771.150142 -21933.243223    138.844131                    
V 23  19397.879477  19612.758331   1318.241852      -.004542                    
P 24   -697.323563 -23664.885177 -11532.625798     17.515341                    
V 24   7272.631076 -13502.908303  26992.943555       .029271                    
P 25  12284.122871  11754.367051 -19971.760584     60.678253                    
V 25  -5788.801678  25694.072776  11473.992256       .752801                    
P 26 -19070.974813  -2977.715862  18107.343079   -165.657811                    
V 26 -15458.450329 -17757.058483 -18228.320756      -.127371                    
P 27   2904.936029 -26053.608279   3566.396101     56.040342                    
V 27   3780.496181  -3124.304957 -31506.678343       .017832                    
P 28  -5363.359591 -14476.225582  21919.798052     24.035648                    
V 28  26359.287496  -6394.312859   1916.715399      -.007679                    
P 29 -20506.527971  -4999.025556  16530.041587    625.457210                    
V 29 -13678.428946 -15153.885912 -21580.889703       .035603                    
P 30 -11694.205436  16606.647395 -17337.433129      2.401102                    
V 30 -21220.028822   4306.409864  18864.234859       .011881                    
EOF
